[{"OBJECT_NAME":"DMSP 5D-3 F16 (USA 172)","OBJECT_ID":"2003-048A","EPOCH":"2026-03-03T12:04:22.185120","MEAN_MOTION":14.14459161,"ECCENTRICITY":0.0008203,"INCLINATION":98.9998,"RA_OF_ASC_NODE":85.5835,"ARG_OF_PERICENTER":88.0191,"MEAN_ANOMALY":71.8736,"EPHEMERIS_TYPE":0,"CLASSIFICATION_TYPE":"U","NORAD_CAT_ID":28054,"ELEMENT_SET_NO":999,"REV_AT_EPOCH":15454,"BSTAR":0.00011121,"MEAN_MOTION_DOT":1.68e-6,"MEAN_MOTION_DDOT":0},{"OBJECT_NAME":"METEOSAT-9 (MSG-2)","OBJECT_ID":"2005-049B","EPOCH":"2026-03-03T02:18:42.620832","MEAN_MOTION":1.00276507,"ECCENTRICITY":0.000187,"INCLINATION":9.122,"RA_OF_ASC_NODE":55.1947,"ARG_OF_PERICENTER":220.2001,"MEAN_ANOMALY":325.8556,"EPHEMERIS_TYPE":0,"CLASSIFICATION_TYPE":"U","NORAD_CAT_ID":28912,"ELEMENT_SET_NO":999,"REV_AT_EPOCH":593,"BSTAR":0,"MEAN_MOTION_DOT":1.13e-6,"MEAN_MOTION_DDOT":0},{"OBJECT_NAME":"DMSP 5D-3 F17 (USA 191)","OBJECT_ID":"2006-050A","EPOCH":"2026-03-03T10:55:36.457248","MEAN_MOTION":14.14960626,"ECCENTRICITY":0.0010114,"INCLINATION":98.7412,"RA_OF_ASC_NODE":71.1772,"ARG_OF_PERICENTER":4.791,"MEAN_ANOMALY":355.3359,"EPHEMERIS_TYPE":0,"CLASSIFICATION_TYPE":"U","NORAD_CAT_ID":29522,"ELEMENT_SET_NO":999,"REV_AT_EPOCH":99746,"BSTAR":0.00013349,"MEAN_MOTION_DOT":2.15e-6,"MEAN_MOTION_DDOT":0},{"OBJECT_NAME":"FENGYUN 3A","OBJECT_ID":"2008-026A","EPOCH":"2026-03-03T11:05:23.918496","MEAN_MOTION":14.19544054,"ECCENTRICITY":0.0009825,"INCLINATION":98.6791,"RA_OF_ASC_NODE":5.3292,"ARG_OF_PERICENTER":74.3218,"MEAN_ANOMALY":285.9041,"EPHEMERIS_TYPE":0,"CLASSIFICATION_TYPE":"U","NORAD_CAT_ID":32958,"ELEMENT_SET_NO":999,"REV_AT_EPOCH":92040,"BSTAR":8.4466e-5,"MEAN_MOTION_DOT":1.35e-6,"MEAN_MOTION_DDOT":0},{"OBJECT_NAME":"GOES 14","OBJECT_ID":"2009-033A","EPOCH":"2026-03-03T11:48:36.438624","MEAN_MOTION":1.00123843,"ECCENTRICITY":0.0002209,"INCLINATION":1.4166,"RA_OF_ASC_NODE":84.4343,"ARG_OF_PERICENTER":296.6761,"MEAN_ANOMALY":159.6122,"EPHEMERIS_TYPE":0,"CLASSIFICATION_TYPE":"U","NORAD_CAT_ID":35491,"ELEMENT_SET_NO":999,"REV_AT_EPOCH":553,"BSTAR":0,"MEAN_MOTION_DOT":1.15e-6,"MEAN_MOTION_DDOT":0},{"OBJECT_NAME":"DMSP 5D-3 F18 (USA 210)","OBJECT_ID":"2009-057A","EPOCH":"2026-03-03T11:44:16.862784","MEAN_MOTION":14.14831127,"ECCENTRICITY":0.0010779,"INCLINATION":98.8953,"RA_OF_ASC_NODE":43.5396,"ARG_OF_PERICENTER":186.0439,"MEAN_ANOMALY":174.0606,"EPHEMERIS_TYPE":0,"CLASSIFICATION_TYPE":"U","NORAD_CAT_ID":35951,"ELEMENT_SET_NO":999,"REV_AT_EPOCH":84464,"BSTAR":0.00018696,"MEAN_MOTION_DOT":3.16e-6,"MEAN_MOTION_DDOT":0},{"OBJECT_NAME":"EWS-G2 (GOES 15)","OBJECT_ID":"2010-008A","EPOCH":"2026-03-03T10:57:14.230944","MEAN_MOTION":1.00269337,"ECCENTRICITY":0.0001687,"INCLINATION":1.0067,"RA_OF_ASC_NODE":85.1657,"ARG_OF_PERICENTER":23.237,"MEAN_ANOMALY":280.6157,"EPHEMERIS_TYPE":0,"CLASSIFICATION_TYPE":"U","NORAD_CAT_ID":36411,"ELEMENT_SET_NO":999,"REV_AT_EPOCH":5857,"BSTAR":0,"MEAN_MOTION_DOT":7.0e-8,"MEAN_MOTION_DDOT":0},{"OBJECT_NAME":"COMS 1","OBJECT_ID":"2010-032A","EPOCH":"2026-03-03T13:32:54.271392","MEAN_MOTION":1.00271057,"ECCENTRICITY":0.0001089,"INCLINATION":4.5338,"RA_OF_ASC_NODE":76.8821,"ARG_OF_PERICENTER":279.1494,"MEAN_ANOMALY":136.6882,"EPHEMERIS_TYPE":0,"CLASSIFICATION_TYPE":"U","NORAD_CAT_ID":36744,"ELEMENT_SET_NO":999,"REV_AT_EPOCH":5003,"BSTAR":0,"MEAN_MOTION_DOT":-3.56e-6,"MEAN_MOTION_DDOT":0},{"OBJECT_NAME":"FENGYUN 3B","OBJECT_ID":"2010-059A","EPOCH":"2026-03-03T12:32:32.583840","MEAN_MOTION":14.14815703,"ECCENTRICITY":0.0022956,"INCLINATION":98.9782,"RA_OF_ASC_NODE":108.0217,"ARG_OF_PERICENTER":124.762,"MEAN_ANOMALY":11.8722,"EPHEMERIS_TYPE":0,"CLASSIFICATION_TYPE":"U","NORAD_CAT_ID":37214,"ELEMENT_SET_NO":999,"REV_AT_EPOCH":79248,"BSTAR":0.00010793,"MEAN_MOTION_DOT":1.64e-6,"MEAN_MOTION_DDOT":0},{"OBJECT_NAME":"SUOMI NPP","OBJECT_ID":"2011-061A","EPOCH":"2026-03-03T11:16:55.381152","MEAN_MOTION":14.19541404,"ECCENTRICITY":4.37e-5,"INCLINATION":98.7863,"RA_OF_ASC_NODE":4.1224,"ARG_OF_PERICENTER":290.8006,"MEAN_ANOMALY":69.3123,"EPHEMERIS_TYPE":0,"CLASSIFICATION_TYPE":"U","NORAD_CAT_ID":37849,"ELEMENT_SET_NO":999,"REV_AT_EPOCH":74344,"BSTAR":6.7593e-5,"MEAN_MOTION_DOT":9.8e-7,"MEAN_MOTION_DDOT":0},{"OBJECT_NAME":"METEOSAT-10 (MSG-3)","OBJECT_ID":"2012-035B","EPOCH":"2026-03-03T09:10:38.529696","MEAN_MOTION":1.00277108,"ECCENTRICITY":0.0002484,"INCLINATION":4.4213,"RA_OF_ASC_NODE":61.4676,"ARG_OF_PERICENTER":293.1926,"MEAN_ANOMALY":304.4086,"EPHEMERIS_TYPE":0,"CLASSIFICATION_TYPE":"U","NORAD_CAT_ID":38552,"ELEMENT_SET_NO":999,"REV_AT_EPOCH":4979,"BSTAR":0,"MEAN_MOTION_DOT":-1.7e-7,"MEAN_MOTION_DDOT":0},{"OBJECT_NAME":"METOP-B","OBJECT_ID":"2012-049A","EPOCH":"2026-03-03T11:04:59.818944","MEAN_MOTION":14.21442249,"ECCENTRICITY":0.0001228,"INCLINATION":98.6655,"RA_OF_ASC_NODE":116.0025,"ARG_OF_PERICENTER":300.4213,"MEAN_ANOMALY":59.6843,"EPHEMERIS_TYPE":0,"CLASSIFICATION_TYPE":"U","NORAD_CAT_ID":38771,"ELEMENT_SET_NO":999,"REV_AT_EPOCH":69824,"BSTAR":8.7976e-5,"MEAN_MOTION_DOT":1.49e-6,"MEAN_MOTION_DDOT":0},{"OBJECT_NAME":"INSAT-3D","OBJECT_ID":"2013-038B","EPOCH":"2026-03-03T12:32:16.123776","MEAN_MOTION":1.00273752,"ECCENTRICITY":0.000179,"INCLINATION":1.6533,"RA_OF_ASC_NODE":83.9254,"ARG_OF_PERICENTER":240.3106,"MEAN_ANOMALY":154.59,"EPHEMERIS_TYPE":0,"CLASSIFICATION_TYPE":"U","NORAD_CAT_ID":39216,"ELEMENT_SET_NO":999,"REV_AT_EPOCH":4602,"BSTAR":0,"MEAN_MOTION_DOT":-3.53e-6,"MEAN_MOTION_DDOT":0},{"OBJECT_NAME":"FENGYUN 3C","OBJECT_ID":"2013-052A","EPOCH":"2026-03-03T12:39:03.429792","MEAN_MOTION":14.15726596,"ECCENTRICITY":0.0014131,"INCLINATION":98.4881,"RA_OF_ASC_NODE":41.3123,"ARG_OF_PERICENTER":331.7769,"MEAN_ANOMALY":28.2638,"EPHEMERIS_TYPE":0,"CLASSIFICATION_TYPE":"U","NORAD_CAT_ID":39260,"ELEMENT_SET_NO":999,"REV_AT_EPOCH":64361,"BSTAR":9.8145e-5,"MEAN_MOTION_DOT":1.51e-6,"MEAN_MOTION_DDOT":0},{"OBJECT_NAME":"METEOR-M 2","OBJECT_ID":"2014-037A","EPOCH":"2026-03-03T11:44:00.811392","MEAN_MOTION":14.21426573,"ECCENTRICITY":0.0005743,"INCLINATION":98.5009,"RA_OF_ASC_NODE":42.0286,"ARG_OF_PERICENTER":355.9993,"MEAN_ANOMALY":4.1138,"EPHEMERIS_TYPE":0,"CLASSIFICATION_TYPE":"U","NORAD_CAT_ID":40069,"ELEMENT_SET_NO":999,"REV_AT_EPOCH":60430,"BSTAR":0.00023243,"MEAN_MOTION_DOT":4.66e-6,"MEAN_MOTION_DDOT":0},{"OBJECT_NAME":"HIMAWARI-8","OBJECT_ID":"2014-060A","EPOCH":"2026-03-03T11:19:19.613856","MEAN_MOTION":1.0027255,"ECCENTRICITY":7.96e-5,"INCLINATION":0.0357,"RA_OF_ASC_NODE":254.3626,"ARG_OF_PERICENTER":66.8449,"MEAN_ANOMALY":150.5035,"EPHEMERIS_TYPE":0,"CLASSIFICATION_TYPE":"U","NORAD_CAT_ID":40267,"ELEMENT_SET_NO":999,"REV_AT_EPOCH":4170,"BSTAR":0,"MEAN_MOTION_DOT":-2.9e-6,"MEAN_MOTION_DDOT":0},{"OBJECT_NAME":"FENGYUN 2G","OBJECT_ID":"2014-090A","EPOCH":"2026-03-03T13:30:18.879264","MEAN_MOTION":1.00274791,"ECCENTRICITY":0.0001969,"INCLINATION":5.3718,"RA_OF_ASC_NODE":74.0961,"ARG_OF_PERICENTER":153.4848,"MEAN_ANOMALY":235.9868,"EPHEMERIS_TYPE":0,"CLASSIFICATION_TYPE":"U","NORAD_CAT_ID":40367,"ELEMENT_SET_NO":999,"REV_AT_EPOCH":4094,"BSTAR":0,"MEAN_MOTION_DOT":-3.14e-6,"MEAN_MOTION_DDOT":0}]
