DMSP 5D-3 F16 (USA 172) 
1 28054U 03048A   26062.50303455  .00000168  00000+0  11121-3 0  9998
2 28054  98.9998  85.5835 0008203  88.0191  71.8736 14.14459161154544
METEOSAT-9 (MSG-2)      
1 28912U 05049B   26062.09632663  .00000113  00000+0  00000+0 0  9994
2 28912   9.1220  55.1947 0001870 220.2001 325.8556  1.00276507  5931
DMSP 5D-3 F17 (USA 191) 
1 29522U 06050A   26062.45528307  .00000215  00000+0  13349-3 0  9991
2 29522  98.7412  71.1772 0010114   4.7910 355.3359 14.14960626997463
FENGYUN 3A              
1 32958U 08026A   26062.46208239  .00000135  00000+0  84466-4 0  9993
2 32958  98.6791   5.3292 0009825  74.3218 285.9041 14.19544054920400
GOES 14                 
1 35491U 09033A   26062.49208841  .00000115  00000+0  00000+0 0  9994
2 35491   1.4166  84.4343 0002209 296.6761 159.6122  1.00123843  5539
DMSP 5D-3 F18 (USA 210) 
1 35951U 09057A   26062.48908406  .00000316  00000+0  18696-3 0  9991
2 35951  98.8953  43.5396 0010779 186.0439 174.0606 14.14831127844644
EWS-G2 (GOES 15)        
1 36411U 10008A   26062.45641471  .00000007  00000+0  00000+0 0  9997
2 36411   1.0067  85.1657 0001687  23.2370 280.6157  1.00269337 58577
COMS 1                  
1 36744U 10032A   26062.56451703 -.00000356  00000+0  00000+0 0  9990
2 36744   4.5338  76.8821 0001089 279.1494 136.6882  1.00271057 50030
FENGYUN 3B              
1 37214U 10059A   26062.52259935  .00000164  00000+0  10793-3 0  9991
2 37214  98.9782 108.0217 0022956 124.7620  11.8722 14.14815703792482
SUOMI NPP               
1 37849U 11061A   26062.47008543  .00000098  00000+0  67593-4 0  9997
2 37849  98.7863   4.1224 0000437 290.8006  69.3123 14.19541404743445
METEOSAT-10 (MSG-3)     
1 38552U 12035B   26062.38239039 -.00000017  00000+0  00000+0 0  9994
2 38552   4.4213  61.4676 0002484 293.1926 304.4086  1.00277108 49799
METOP-B                 
1 38771U 12049A   26062.46180346  .00000149  00000+0  87976-4 0  9994
2 38771  98.6655 116.0025 0001228 300.4213  59.6843 14.21442249698245
INSAT-3D                
1 39216U 13038B   26062.52240884 -.00000353  00000+0  00000+0 0  9995
2 39216   1.6533  83.9254 0001790 240.3106 154.5900  1.00273752 46028
FENGYUN 3C              
1 39260U 13052A   26062.52712303  .00000151  00000+0  98145-4 0  9997
2 39260  98.4881  41.3123 0014131 331.7769  28.2638 14.15726596643615
METEOR-M 2              
1 40069U 14037A   26062.48889828  .00000466  00000+0  23243-3 0  9997
2 40069  98.5009  42.0286 0005743 355.9993   4.1138 14.21426573604301
HIMAWARI-8              
1 40267U 14060A   26062.47175479 -.00000290  00000+0  00000+0 0  9990
2 40267   0.0357 254.3626 0000796  66.8449 150.5035  1.00272550 41706
FENGYUN 2G              
1 40367U 14090A   26062.56271851 -.00000314  00000+0  00000+0 0  9992
2 40367   5.3718  74.0961 0001969 153.4848 235.9868  1.00274791 40940
